YUNYAO-1 19             
1 58759U 24009B   24032.61586020  .00023266  00000+0  87279-3 0  9992
2 58759  49.9871  66.0307 0013993  16.3835 343.7571 15.26986819  3274
YUNYAO-1 20             
1 58760U 24009C   24032.61460230  .00023350  00000+0  87340-3 0  9991
2 58760  49.9935  66.0329 0014072  18.3009 341.8451 15.27080117  3278
GRAVITY-1 R/B           
1 58761U 24009D   24032.32087347  .00055535  11320-4  32599-3 0  9992
2 58761  49.8520  61.3743 0156168  72.9273 288.8737 15.63340059  3303
STARLINK-31127          
1 58765U 24011A   24032.91667824 -.01723919  00000+0 -26002-1 0  9997
2 58765  53.1604 245.3271 0001252  91.0527 131.2521 15.57236086  4035
STARLINK-31114          
1 58766U 24011B   24032.91667824 -.01723391  00000+0 -25994-1 0  9991
2 58766  53.1604 245.3249 0001380  84.5656 138.6005 15.57233993  4035
STARLINK-31140          
1 58767U 24011C   24032.91667824 -.01724161  00000+0 -26009-1 0  9996
2 58767  53.1598 245.3232 0001233  89.4191 134.6075 15.57233273  4141
STARLINK-31145          
1 58768U 24011D   24032.91667824 -.01723831  00000+0 -26004-1 0  9995
2 58768  53.1599 245.3214 0001341  89.7941 135.0933 15.57231699  4046
STARLINK-31146          
1 58769U 24011E   24032.91667824 -.01724403  00000+0 -26017-1 0  9996
2 58769  53.1599 245.3199 0001072  84.7544 140.9936 15.57230721  4159
STARLINK-31143          
1 58770U 24011F   24032.91667824 -.01723412  00000+0 -25999-1 0  9995
2 58770  53.1600 245.3179 0001477  79.4891 147.1200 15.57228340  4042
STARLINK-31135          
1 58771U 24011G   24032.91667824 -.01722977  00000+0 -25994-1 0  9996
2 58771  53.1602 245.3159 0001383  88.2094 139.2608 15.57226834  4031
STARLINK-31136          
1 58772U 24011H   24032.91667824 -.01722868  00000+0 -25994-1 0  9996
2 58772  53.1600 245.3142 0001385  80.5128 147.8186 15.57224936  4146
STARLINK-31073          
1 58773U 24011J   24032.58334491 -.01720455  00000+0 -24751-1 0  9991
2 58773  53.1601 246.9248 0001093  99.6023  59.1010 15.58478587  3989
STARLINK-31122          
1 58774U 24011K   24032.58334491 -.01717260  00000+0 -24702-1 0  9998
2 58774  53.1601 246.9230 0001215  86.9750  72.5918 15.58475018  4098
STARLINK-31123          
1 58775U 24011L   24032.91667824 -.01723419  00000+0 -26008-1 0  9999
2 58775  53.1601 245.3087 0001274  75.0435 155.8701 15.57221171  4033
STARLINK-31117          
1 58776U 24011M   24032.91667824 -.01724063  00000+0 -26021-1 0  9991
2 58776  53.1602 245.3069 0001107  83.9433 147.8308 15.57220495  4038
STARLINK-31132          
1 58777U 24011N   24032.58334491 -.01715943  00000+0 -24684-1 0  9996
2 58777  53.1600 246.9175 0001412  92.4131  69.7418 15.58469863  4096
STARLINK-31120          
1 58778U 24011P   24032.83334491 -.01753823  00000+0 -26200-1 0  9990
2 58778  53.1600 245.7044 0001126  72.7405  54.1336 15.57545807  4028
STARLINK-31142          
1 58779U 24011Q   24032.83334491 -.01753316  00000+0 -26190-1 0  9996
2 58779  53.1599 245.7058 0001186  71.6765  54.3367 15.57546793  4137
STARLINK-31103          
1 58780U 24011R   24032.83334491 -.01752247  00000+0 -26174-1 0  9992
2 58780  53.1599 245.7024 0001397  70.7483  56.9878 15.57542930  4025
STARLINK-31099          
1 58781U 24011S   24032.83334491 -.01753406  00000+0 -26195-1 0  9994
2 58781  53.1600 245.6989 0001435  75.6933  53.7651 15.57540945  4023
STARLINK-31060          
1 58782U 24011T   24032.91667824 -.01708323  00000+0 -16910-1 0  9995
2 58782  53.1609 245.0589 0000760  63.0083 292.3200 15.68388111  4040
STARLINK-31047          
1 58783U 24011U   24032.58334491 -.01716898  00000+0 -21839-1 0  9992
2 58783  53.1609 246.6559 0000722  80.8921 209.9659 15.61665055  3983
STARLINK-31039          
1 58784U 24011V   24032.58334491 -.01716193  00000+0 -24700-1 0  9991
2 58784  53.1598 246.9047 0001119  85.0888  83.1035 15.58459776  3983
STARLINK-31034          
1 58785U 24011W   24032.83334491 -.01734157  00000+0 -16877-1 0  9996
2 58785  53.1601 245.0254 0001314  62.5994  37.4814 15.68840565  4028
STARLINK-31024          
1 58786U 24011X   24032.58334491 -.01716602  00000+0 -24708-1 0  9996
2 58786  53.1596 246.9006 0001182 102.2509  67.6659 15.58457700  3984
STARLINK-31189          
1 58787U 24012A   24032.91667824 -.01691388  00000+0 -16835-1 0  9999
2 58787  43.0003 169.8154 0001402 302.6080 120.4702 15.67986343  3895
STARLINK-31185          
1 58788U 24012B   24032.91667824 -.01697472  00000+0 -17052-1 0  9992
2 58788  43.0004 169.8140 0001817 284.5934 139.1315 15.67770862  4040
STARLINK-31166          
1 58789U 24012C   24032.91667824 -.01697142  00000+0 -17052-1 0  9997
2 58789  43.0003 169.8117 0001530 280.6145 143.9829 15.67768736  3899
STARLINK-31187          
1 58790U 24012D   24032.91667824 -.01697031  00000+0 -17050-1 0  9994
2 58790  43.0005 169.8096 0001748 286.1075 139.3607 15.67767340  4044
STARLINK-31162          
1 58791U 24012E   24032.91667824 -.01695361  00000+0 -19549-1 0  9994
2 58791  43.0002 169.7128 0001328 282.1448 181.7617 15.64387863  4059
STARLINK-31194          
1 58792U 24012F   24032.58334491 -.01732974  00000+0 -14050-1 0  9993
2 58792  43.0011 171.2521 0001336 268.6376 295.7213 15.72909113  4003
STARLINK-31184          
1 58793U 24012G   24032.91667824 -.01695907  00000+0 -17042-1 0  9998
2 58793  43.0005 169.8024 0001650 287.6387 140.4447 15.67761584  3950
STARLINK-31192          
1 58794U 24012H   24032.83334491 -.01663279  00000+0 -16476-1 0  9998
2 58794  43.0005 170.3024 0001551 278.0881  39.9343 15.68046021  3883
STARLINK-31161          
1 58795U 24012J   24032.83334491 -.01659966  00000+0 -16440-1 0  9998
2 58795  43.0005 170.3001 0001680 278.4854  40.4084 15.68042882  4034
STARLINK-31195          
1 58796U 24012K   24032.83334491 -.01481605  00000+0 -14586-1 0  9991
2 58796  43.0005 170.2970 0001530 282.9344  36.9816 15.67849675  4034
STARLINK-31193          
1 58797U 24012L   24032.83334491 -.01639762  00000+0 -16308-1 0  9995
2 58797  43.0006 170.2945 0002515 303.1303  17.8280 15.67893325  4037
STARLINK-31168          
1 58798U 24012M   24032.83334491 -.01661049  00000+0 -16455-1 0  9992
2 58798  43.0005 170.2927 0001652 275.2030  46.3068 15.68039011  4030
STARLINK-31154          
1 58799U 24012N   24032.83334491 -.01664243  00000+0 -16502-1 0  9995
2 58799  43.0005 170.2678 0001598 276.2743  54.8276 15.68023288  3937
STARLINK-31191          
1 58800U 24012P   24032.83334491 -.01659777  00000+0 -16442-1 0  9997
2 58800  43.0005 170.2905 0001710 275.0459  47.3362 15.68036494  3880
STARLINK-31170          
1 58801U 24012Q   24032.83334491 -.01661403  00000+0 -16461-1 0  9998
2 58801  43.0005 170.2878 0001656 276.6400  46.6137 15.68035989  4030
STARLINK-31173          
1 58802U 24012R   24032.83334491 -.01318200  53149-3 -27861-2 0  9996
2 58802  43.0002 168.5128 0001655 297.5565  11.1799 15.97941541  4043
STARLINK-31141          
1 58803U 24012S   24032.83334491 -.01659251  00000+0 -16441-1 0  9996
2 58803  43.0004 170.2812 0001665 288.3793  37.4901 15.68029791  4035
STARLINK-31188          
1 58804U 24012T   24032.83334491 -.01659212  00000+0 -16439-1 0  9991
2 58804  43.0006 170.2834 0001732 282.2763  42.7217 15.68031352  4032
STARLINK-31105          
1 58805U 24012U   24032.83334491 -.01661793  00000+0 -16470-1 0  9994
2 58805  43.0005 170.2790 0001647 278.1921  48.5505 15.68029309  3883
STARLINK-31138          
1 58806U 24012V   24032.83334491 -.01662672  00000+0 -16480-1 0  9993
2 58806  43.0006 170.2774 0001659 275.1952  52.4185 15.68028998  4030
STARLINK-31163          
1 58807U 24012W   24032.83334491 -.01657331  00000+0 -16421-1 0  9995
2 58807  43.0006 170.2746 0001951 273.7410  54.7452 15.68024327  4032
STARLINK-31174          
1 58808U 24012X   24032.83334491 -.01661373  00000+0 -16469-1 0  9999
2 58808  43.0006 170.2720 0001620 278.2238  51.1351 15.68024170  4031
STARLINK-31169          
1 58809U 24012Y   24032.83334491 -.01664213  00000+0 -16502-1 0  9994
2 58809  43.0005 170.2706 0001451 276.5459  53.6842 15.68024388  4036
NANOFF A                
1 58810U 23185T   24029.79184023  .00004237  00000+0  32841-3 0  9998
2 58810  97.6416  98.6894 0013698  49.2557  46.4273 15.01865590  2064
TIANZHOU-7              
1 58811U 24013A   24032.46850879  .00015333  00000+0  16750-3 0  9997
2 58811  41.4671 198.4620 0008682 280.6847  79.3015 15.62965722157695
CZ-7 DEB                
1 58813U 24013C   24018.11402078 -.00002294  72670-5  00000+0 0  9997
2 58813  41.8298 285.9373 0234014 181.6233 328.2070 15.73710950    93
CZ-7 DEB                
1 58814U 24013D   24018.11444661 -.00002240  70950-5  00000+0 0  9992
2 58814  41.6413 286.0086 0240306 187.1577 323.2676 15.72861586    84
AXIOM-3                 
1 58815U 24014A   24032.53380161  .00013545  00000+0  24991-3 0  9991
2 58815  51.6389 272.5233 0002538 191.1296 168.9637 15.49418408437358
DALIAN-1 LIANLI         
1 58816U 23063C   24029.78296075  .00121385  00000+0  11155-2 0  9997
2 58816  41.4674 214.5252 0011520 239.0941 239.9411 15.66444064  1745
SORAYA                  
1 58817U 24015A   24032.86896939  .00000187  00000+0  89548-4 0  9993
2 58817  64.5136  76.1523 0011394 255.5832 104.3989 14.41907574  1825
QAEM 100 R/B            
1 58818U 24015B   24032.51036288  .00000261  00000+0  10898-3 0  9993
2 58818  64.5027  77.0979 0012096 288.0869  71.8899 14.43302088  1774
QAEM 100 DEB            
1 58819U 24015C   24028.55774234  .00054227  00000+0  15623-1 0  9993
2 58819  64.4782  88.5570 0010930 314.2129  45.8058 14.44281846  1162
2024-016A               
1 58820U 24016A   24032.81366229  .00012794  00000+0  76126-3 0  9991
2 58820  97.5238 108.9960 0013499 249.5577 110.4204 15.11295737  1461
